JY1SAT (JO-97)          
1 43803U 18099AX  26068.68634132  .00017774  00000+0  60804-3 0  9996
2 43803  97.4249 131.3625 0004723 256.6795 103.3919 15.30302628398390
STARLINK-33556          
1 62109U 24220X   26068.42891387  .00041375  00000+0  15049-2 0  9992
2 62109  43.0048 206.8151 0001615 294.5521  65.5162 15.27575525 73170
